OBJECT_NAME,OBJECT_ID,EPOCH,MEAN_MOTION,ECCENTRICITY,INCLINATION,RA_OF_ASC_NODE,ARG_OF_PERICENTER,MEAN_ANOMALY,EPHEMERIS_TYPE,CLASSIFICATION_TYPE,NORAD_CAT_ID,ELEMENT_SET_NO,REV_AT_EPOCH,BSTAR,MEAN_MOTION_DOT,MEAN_MOTION_DDOT
LEMUR-2-ROUNDTRIPPER,2025-009DG,2026-06-16T18:15:55.565856,15.03787424,.0005323,97.7258,250.4406,131.7591,228.4090,0,U,62711,999,7756,.52915E-3,.7213E-4,0
LEMUR-2-MYNAMEISJEFF,2025-009DH,2026-06-16T18:13:38.251200,15.03793625,.0003539,97.7305,250.8199,152.5490,207.5922,0,U,62712,999,7756,.48862E-3,.6655E-4,0
LEMUR-2-LEIA-PHILIP,2025-052AN,2026-06-16T16:02:58.069824,14.97318877,.0002497,97.6841,59.6286,211.4232,148.6841,0,U,63246,999,6859,.76509E-4,.83E-5,0
LEMUR-2-LIA-MARTIN,2025-052AQ,2026-06-16T16:10:29.462304,14.97801450,.0002847,97.6898,60.1083,157.2667,202.8682,0,U,63248,999,6860,.25404E-3,.2926E-4,0
LEMUR-2-DELOITTE-1,2025-052BB,2026-06-16T15:36:23.806656,14.97600452,.0003354,97.6921,60.4132,98.2057,261.9546,0,U,63259,999,6861,.33069E-3,.3807E-4,0
LEMUR-2-EMERSONROSE,2025-052BD,2026-06-16T16:37:31.338048,14.99076766,.0001759,97.6886,61.0132,67.0618,293.0790,0,U,63261,999,6866,.24668E-3,.2936E-4,0
LEMUR-2-MARACHE-FRAN,2025-052BE,2026-06-16T16:02:28.747392,15.00098430,.0005426,97.6944,61.3044,24.8497,335.2987,0,U,63262,999,6868,.35629E-3,.4384E-4,0
LEMUR-2-THEFALCONER,2025-052BG,2026-06-16T16:14:15.851040,14.97386808,.0002745,97.6864,60.0608,34.8239,325.3162,0,U,63264,999,6861,.20725E-3,.2351E-4,0
LEMUR-2-UNTITLED-SC,2025-061A,2026-06-16T10:15:40.218048,15.13472435,.0016959,97.5631,142.7947,267.5329,92.3961,0,U,63351,999,6747,.20334364E-3,.3582E-4,0
LEMUR-2-ESPERANZA,2025-061B,2026-06-16T20:49:12.741312,15.13570058,.0016521,97.5644,143.3250,265.1415,94.7930,0,U,63352,999,6754,.20525E-3,.3626E-4,0
LEMUR-2-KREMPEL-BRO2,2025-061C,2026-06-16T10:21:58.968000,15.14002277,.00174641,97.5687,143.4248,258.3871,101.5401,0,U,63353,999,6749,.19170634E-3,.3425E-4,0
LEMUR-2-THERMORAPTOR,2025-061D,2026-06-16T11:31:23.232864,15.14082344,.0017216,97.5694,143.5483,257.1146,102.8163,0,U,63354,999,6750,.22079161E-3,.3964E-4,0
LEMUR-2-NEUROSPICY,2025-061E,2026-06-16T20:21:38.037024,15.14200177,.001498,97.5623,143.5408,259.4810,100.4734,0,U,63355,999,6756,.17459E-3,.3128E-4,0
LEMUR-2-TILLINFINITY,2025-061F,2026-06-16T10:06:44.290944,15.14783311,.00163612,97.5605,143.4065,248.0798,111.8694,0,U,63356,999,6752,.22453089E-3,.4112E-4,0
LEMUR-2-KREMPEL-BRO1,2025-061G,2026-06-16T15:48:56.215008,15.14590785,.0016939,97.5608,143.5591,248.3908,111.5519,0,U,63357,999,6755,.18763E-3,.3407E-4,0
LEMUR-2-LANGER2SPACE,2025-061H,2026-06-16T11:41:29.360832,15.14285407,.00149524,97.5610,143.2023,259.0971,100.8579,0,U,63358,999,6751,.21503113E-3,.3877E-4,0
LEMUR-2-BALTO,2025-052BH,2026-06-16T15:40:25.401792,15.00082051,.0006907,97.6897,61.2678,59.0808,301.1093,0,U,63395,999,6868,.40033E-3,.4933E-4,0
LEMUR-2-KRISH,2025-135AK,2026-06-16T14:32:56.822208,14.96204740,.0001761,97.7753,282.4860,99.8534,260.2886,0,U,64561,999,5383,.42727E-3,.476E-4,0
LEMUR-2-HUBBLE-4,2025-135AP,2026-06-16T14:24:24.711264,14.93196463,.0000987,97.7699,281.5133,311.6731,48.4404,0,U,64565,999,5378,.15062E-3,.1517E-4,0
LEMUR-2-SEJONG-2,2025-135BL,2026-06-16T20:05:11.609952,14.96694272,.0003876,97.7689,282.8600,340.5216,19.5857,0,U,64586,999,5389,.29063E-3,.326E-4,0
LEMUR-2-HUBBLE-5,2025-135BT,2026-06-16T18:08:06.370656,14.94135215,.0005133,97.7719,282.3000,355.7348,4.3827,0,U,64840,999,5384,.10655E-3,.1083E-4,0
LEMUR-2-KARENDARRELL,2025-135BU,2026-06-16T20:25:57.883296,15.00106553,.0009654,97.7684,284.0595,203.3070,156.7717,0,U,64841,999,5396,.51382E-3,.6355E-4,0
LEMUR-2-LUCILLE-ROSE,2025-135BV,2026-06-16T13:23:55.180320,15.00148096,.00111845,97.7772,283.7859,285.3047,74.6940,0,U,65403,999,4854,.42863674E-3,.5298E-4,0
LEMUR-2-AFFIE-WAUWIE,2025-248C,2026-06-16T03:21:25.708032,15.27115158,.00075209,45.3895,120.6606,77.2231,282.9498,0,U,66295,999,3443,.50637182E-3,.13448E-3,0
LEMUR-2-DEANANDMAEVE,2025-276N,2026-06-16T17:19:48.488736,15.19728729,.0005777,97.4213,241.2053,16.2444,343.8975,0,U,66678,999,3034,.23971E-3,.5056E-4,0
LEMUR-2-STAS-GORBUK,2025-276W,2026-06-16T17:40:32.449152,15.19378050,.0005154,97.4248,241.2745,16.9173,343.2233,0,U,66686,999,3034,.22936E-3,.4785E-4,0
LEMUR-2-TEODOR,2025-276DG,2026-06-16T20:27:21.762144,15.21047653,.0002128,97.4154,241.6242,117.1853,242.9600,0,U,66768,999,3039,.20812E-3,.4552E-4,0
LEMUR-2-LAILA,2025-276DQ,2026-06-16T18:15:09.227808,15.21267662,.000221,97.4176,241.6543,136.2653,223.8758,0,U,66776,999,3038,.22524E-3,.4965E-4,0
LEMUR-2-CELIJO-SB-PK,2025-276DW,2026-06-16T16:52:20.939232,14.99971954,.0008819,97.5256,238.4964,134.1430,226.0520,0,U,66781,999,2255,.38998E-3,.4793E-4,0
LEMUR-2-FINNIAN,2025-276DX,2026-06-16T17:55:25.603104,15.00373674,.0008863,97.5287,238.7520,90.6743,269.5497,0,U,66782,999,1993,.45767E-3,.5695E-4,0
