LEMUR-2-ROUNDTRIPPER    
1 62711U 25009DG  26167.76105979  .00007213  00000+0  52915-3 0  9996
2 62711  97.7258 250.4406 0005323 131.7591 228.4090 15.03787424 77569
LEMUR-2-MYNAMEISJEFF    
1 62712U 25009DH  26167.75947050  .00006655  00000+0  48862-3 0  9995
2 62712  97.7305 250.8199 0003539 152.5490 207.5922 15.03793625 77564
LEMUR-2-LEIA-PHILIP     
1 63246U 25052AN  26167.66872766  .00000830  00000+0  76509-4 0  9996
2 63246  97.6841  59.6286 0002497 211.4232 148.6841 14.97318877 68596
LEMUR-2-LIA-MARTIN      
1 63248U 25052AQ  26167.67395211  .00002926  00000+0  25404-3 0  9999
2 63248  97.6898  60.1083 0002847 157.2667 202.8682 14.97801450 68602
LEMUR-2-DELOITTE-1      
1 63259U 25052BB  26167.65027554  .00003807  00000+0  33069-3 0  9996
2 63259  97.6921  60.4132 0003354  98.2057 261.9546 14.97600452 68615
LEMUR-2-EMERSONROSE     
1 63261U 25052BD  26167.69272382  .00002936  00000+0  24668-3 0  9991
2 63261  97.6886  61.0132 0001759  67.0618 293.0790 14.99076766 68668
LEMUR-2-MARACHE-FRAN    
1 63262U 25052BE  26167.66838828  .00004384  00000+0  35629-3 0  9990
2 63262  97.6944  61.3044 0005426  24.8497 335.2987 15.00098430 68684
LEMUR-2-THEFALCONER     
1 63264U 25052BG  26167.67657235  .00002351  00000+0  20725-3 0  9997
2 63264  97.6864  60.0608 0002745  34.8239 325.3162 14.97386808 68617
LEMUR-2-UNTITLED-SC     
1 63351U 25061A   26167.42754882  .00003582  00000+0  20334-3 0  9996
2 63351  97.5631 142.7947 0016959 267.5329  92.3961 15.13472435 67478
LEMUR-2-ESPERANZA       
1 63352U 25061B   26167.86750858  .00003626  00000+0  20525-3 0  9995
2 63352  97.5644 143.3250 0016521 265.1415  94.7930 15.13570058 67542
LEMUR-2-KREMPEL-BRO2    
1 63353U 25061C   26167.43193250  .00003425  00000+0  19171-3 0  9998
2 63353  97.5687 143.4248 0017464 258.3871 101.5401 15.14002277 67493
LEMUR-2-THERMORAPTOR    
1 63354U 25061D   26167.48013001  .00003964  00000+0  22079-3 0  9998
2 63354  97.5694 143.5483 0017216 257.1146 102.8163 15.14082344 67505
LEMUR-2-NEUROSPICY      
1 63355U 25061E   26167.84835691  .00003128  00000+0  17459-3 0  9994
2 63355  97.5623 143.5408 0014980 259.4810 100.4734 15.14200177 67563
LEMUR-2-TILLINFINITY    
1 63356U 25061F   26167.42134596  .00004112  00000+0  22453-3 0  9999
2 63356  97.5605 143.4065 0016361 248.0798 111.8694 15.14783311 67529
LEMUR-2-KREMPEL-BRO1    
1 63357U 25061G   26167.65898397  .00003407  00000+0  18763-3 0  9996
2 63357  97.5608 143.5591 0016939 248.3908 111.5519 15.14590785 67552
LEMUR-2-LANGER2SPACE    
1 63358U 25061H   26167.48714538  .00003877  00000+0  21503-3 0  9999
2 63358  97.5610 143.2023 0014952 259.0971 100.8579 15.14285407 67510
LEMUR-2-BALTO           
1 63395U 25052BH  26167.65307178  .00004933  00000+0  40033-3 0  9990
2 63395  97.6897  61.2678 0006907  59.0808 301.1093 15.00082051 68683
LEMUR-2-KRISH           
1 64561U 25135AK  26167.60621322  .00004760  00000+0  42727-3 0  9993
2 64561  97.7753 282.4860 0001761  99.8534 260.2886 14.96204740 53833
LEMUR-2-HUBBLE-4        
1 64565U 25135AP  26167.60028601  .00001517  00000+0  15062-3 0  9997
2 64565  97.7699 281.5133 0000987 311.6731  48.4404 14.93196463 53787
LEMUR-2-SEJONG-2        
1 64586U 25135BL  26167.83693993  .00003260  00000+0  29063-3 0  9990
2 64586  97.7689 282.8600 0003876 340.5216  19.5857 14.96694272 53898
LEMUR-2-HUBBLE-5        
1 64840U 25135BT  26167.75562929  .00001083  00000+0  10655-3 0  9996
2 64840  97.7719 282.3000 0005133 355.7348   4.3827 14.94135215 53845
LEMUR-2-KARENDARRELL    
1 64841U 25135BU  26167.85136439  .00006355  00000+0  51382-3 0  9990
2 64841  97.7684 284.0595 0009654 203.3070 156.7717 15.00106553 53961
LEMUR-2-LUCILLE-ROSE    
1 65403U 25135BV  26167.55827755  .00005298  00000+0  42864-3 0  9990
2 65403  97.7772 283.7859 0011184 285.3047  74.6940 15.00148096 48540
LEMUR-2-AFFIE-WAUWIE    
1 66295U 25248C   26167.13988088  .00013448  00000+0  50637-3 0  9999
2 66295  45.3895 120.6606 0007520  77.2231 282.9498 15.27115158 34433
LEMUR-2-DEANANDMAEVE    
1 66678U 25276N   26167.72208899  .00005056  00000+0  23971-3 0  9992
2 66678  97.4213 241.2053 0005777  16.2444 343.8975 15.19728729 30345
LEMUR-2-STAS-GORBUK     
1 66686U 25276W   26167.73648668  .00004785  00000+0  22936-3 0  9992
2 66686  97.4248 241.2745 0005154  16.9173 343.2233 15.19378050 30344
LEMUR-2-TEODOR          
1 66768U 25276DG  26167.85233521  .00004552  00000+0  20812-3 0  9997
2 66768  97.4154 241.6242 0002128 117.1853 242.9600 15.21047653 30397
LEMUR-2-LAILA           
1 66776U 25276DQ  26167.76052347  .00004965  00000+0  22524-3 0  9991
2 66776  97.4176 241.6543 0002210 136.2653 223.8758 15.21267662 30381
LEMUR-2-CELIJO-SB-PK    
1 66781U 25276DW  26167.70302013  .00004793  00000+0  38998-3 0  9990
2 66781  97.5256 238.4964 0008819 134.1430 226.0520 14.99971954 22551
LEMUR-2-FINNIAN         
1 66782U 25276DX  26167.74682411  .00005695  00000+0  45767-3 0  9992
2 66782  97.5287 238.7520 0008863  90.6743 269.5497 15.00373674 19930
